[{"OBJECT_NAME":"BUFENG 1B","OBJECT_ID":"2019-032B","EPOCH":"2026-03-09T19:57:27.457920","MEAN_MOTION":15.25619535,"ECCENTRICITY":0.00242037,"INCLINATION":44.9701,"RA_OF_ASC_NODE":192.0248,"ARG_OF_PERICENTER":123.8847,"MEAN_ANOMALY":236.4342,"EPHEMERIS_TYPE":0,"CLASSIFICATION_TYPE":"U","NORAD_CAT_ID":44311,"ELEMENT_SET_NO":999,"REV_AT_EPOCH":37256,"BSTAR":0.00059375374,"MEAN_MOTION_DOT":0.00015236,"MEAN_MOTION_DDOT":0},{"OBJECT_NAME":"STARLINK-34914","OBJECT_ID":"2025-176F","EPOCH":"2026-03-09T12:04:53.975136","MEAN_MOTION":15.30176741,"ECCENTRICITY":0.00011217,"INCLINATION":53.1587,"RA_OF_ASC_NODE":153.4724,"ARG_OF_PERICENTER":86.893,"MEAN_ANOMALY":273.2199,"EPHEMERIS_TYPE":0,"CLASSIFICATION_TYPE":"U","NORAD_CAT_ID":65203,"ELEMENT_SET_NO":999,"REV_AT_EPOCH":3309,"BSTAR":0.00094542215,"MEAN_MOTION_DOT":0.00027726,"MEAN_MOTION_DDOT":0}]
